UNKNOWN                 
1 81427U          25335.62197713  .00001011  00000+0  61113-3 0  9993
2 81427  98.7482 218.1093 0085306  69.3878 291.6415 14.06913956550203
UNKNOWN                 
1 81438U          25336.92632827  .00003678  00000+0  54092-2 0  9997
2 81438 100.3099 208.1917 0044746  92.3523 268.2736 13.54591197590615
UNKNOWN                 
1 81439U          25337.22099827  .00000297  00000+0  96104-3 0  9994
2 81439  67.1579 160.2017 0603621 208.9466 147.6793 12.62603423260691
UNKNOWN                 
1 81449U          25337.12459223  .00080700  00000+0  67050-2 0  9998
2 81449  66.7959  19.7827 0018425 139.4975 220.7533 14.98111045632111
UNKNOWN                 
1 81478U          25337.01159035  .00007086  00000+0  25528-2 0  9996
2 81478  98.9504 248.6634 0148223  26.6197 351.9510 14.28039224621557
UNKNOWN                 
1 81488U          25336.93289519  .00000247  00000+0  41298-3 0  9993
2 81488 100.0020 209.4453 0045076  24.4851 352.6675 13.56515112595303
UNKNOWN                 
1 81497U          25335.93258310  .00004706  00000+0  42610-2 0  9999
2 81497 100.3015 229.5626 0029522  40.7664  20.3982 13.84030990214806
UNKNOWN                 
1 81499U          25336.47315950  .00003641  00000+0  10072-2 0  9999
2 81499  74.0499 240.2383 0002021 289.4859  70.6082 14.47032962480933
UNKNOWN                 
1 81535U          25334.68419745  .00001788  00000+0  74671-3 0  9994
2 81535  98.2033  57.8910 0235838 183.3861 176.5728 14.13367578385690
UNKNOWN                 
1 81536U          25335.89729804  .00000690  00000+0  44708-2 0  9997
2 81536 101.9571 196.8368 0036022 307.5169  68.5828 12.55848085550456
UNKNOWN                 
1 81537U          25337.15398458  .00000440  00000+0  28312-3 0  9993
2 81537  71.0375 129.0795 0076793 168.5080 191.7815 14.07077341619116
UNKNOWN                 
1 81552U          25334.78977765  .00001048  00000+0  23273-2 0  9995
2 81552  99.0689 263.0944 0258917  46.5201 315.7133 13.18139573577678
