CCSDS_OMM_VERS = 2.0
CREATION_DATE  = 
ORIGINATOR     = 

OBJECT_NAME    = UNKNOWN
OBJECT_ID      = 
CENTER_NAME    = EARTH
REF_FRAME      = TEME
TIME_SYSTEM    = UTC
MEAN_ELEMENT_THEORY = SGP/SGP4

EPOCH          = 2025-12-01T14:55:38.824032
MEAN_MOTION    = 14.06913956
ECCENTRICITY   = .0085306
INCLINATION    = 98.7482
RA_OF_ASC_NODE = 218.1093
ARG_OF_PERICENTER = 69.3878
MEAN_ANOMALY   = 291.6415

EPHEMERIS_TYPE = 0
CLASSIFICATION_TYPE = U
NORAD_CAT_ID   = 81427
ELEMENT_SET_NO = 999
REV_AT_EPOCH   = 55020
BSTAR          = .61113E-3
MEAN_MOTION_DOT = .1011E-4
MEAN_MOTION_DDOT = 0

CCSDS_OMM_VERS = 2.0
CREATION_DATE  = 
ORIGINATOR     = 

OBJECT_NAME    = UNKNOWN
OBJECT_ID      = 
CENTER_NAME    = EARTH
REF_FRAME      = TEME
TIME_SYSTEM    = UTC
MEAN_ELEMENT_THEORY = SGP/SGP4

EPOCH          = 2025-12-02T22:13:54.762528
MEAN_MOTION    = 13.54591197
ECCENTRICITY   = .0044746
INCLINATION    = 100.3099
RA_OF_ASC_NODE = 208.1917
ARG_OF_PERICENTER = 92.3523
MEAN_ANOMALY   = 268.2736

EPHEMERIS_TYPE = 0
CLASSIFICATION_TYPE = U
NORAD_CAT_ID   = 81438
ELEMENT_SET_NO = 999
REV_AT_EPOCH   = 59061
BSTAR          = .54092E-2
MEAN_MOTION_DOT = .3678E-4
MEAN_MOTION_DDOT = 0

CCSDS_OMM_VERS = 2.0
CREATION_DATE  = 
ORIGINATOR     = 

OBJECT_NAME    = UNKNOWN
OBJECT_ID      = 
CENTER_NAME    = EARTH
REF_FRAME      = TEME
TIME_SYSTEM    = UTC
MEAN_ELEMENT_THEORY = SGP/SGP4

EPOCH          = 2025-12-03T05:18:14.250528
MEAN_MOTION    = 12.62603423
ECCENTRICITY   = .0603621
INCLINATION    = 67.1579
RA_OF_ASC_NODE = 160.2017
ARG_OF_PERICENTER = 208.9466
MEAN_ANOMALY   = 147.6793

EPHEMERIS_TYPE = 0
CLASSIFICATION_TYPE = U
NORAD_CAT_ID   = 81439
ELEMENT_SET_NO = 999
REV_AT_EPOCH   = 26069
BSTAR          = .96104E-3
MEAN_MOTION_DOT = .297E-5
MEAN_MOTION_DDOT = 0

CCSDS_OMM_VERS = 2.0
CREATION_DATE  = 
ORIGINATOR     = 

OBJECT_NAME    = UNKNOWN
OBJECT_ID      = 
CENTER_NAME    = EARTH
REF_FRAME      = TEME
TIME_SYSTEM    = UTC
MEAN_ELEMENT_THEORY = SGP/SGP4

EPOCH          = 2025-12-03T02:59:24.768672
MEAN_MOTION    = 14.98111045
ECCENTRICITY   = .0018425
INCLINATION    = 66.7959
RA_OF_ASC_NODE = 19.7827
ARG_OF_PERICENTER = 139.4975
MEAN_ANOMALY   = 220.7533

EPHEMERIS_TYPE = 0
CLASSIFICATION_TYPE = U
NORAD_CAT_ID   = 81449
ELEMENT_SET_NO = 999
REV_AT_EPOCH   = 63211
BSTAR          = .6705E-2
MEAN_MOTION_DOT = .807E-3
MEAN_MOTION_DDOT = 0

CCSDS_OMM_VERS = 2.0
CREATION_DATE  = 
ORIGINATOR     = 

OBJECT_NAME    = UNKNOWN
OBJECT_ID      = 
CENTER_NAME    = EARTH
REF_FRAME      = TEME
TIME_SYSTEM    = UTC
MEAN_ELEMENT_THEORY = SGP/SGP4

EPOCH          = 2025-12-03T00:16:41.406240
MEAN_MOTION    = 14.28039224
ECCENTRICITY   = .0148223
INCLINATION    = 98.9504
RA_OF_ASC_NODE = 248.6634
ARG_OF_PERICENTER = 26.6197
MEAN_ANOMALY   = 351.9510

EPHEMERIS_TYPE = 0
CLASSIFICATION_TYPE = U
NORAD_CAT_ID   = 81478
ELEMENT_SET_NO = 999
REV_AT_EPOCH   = 62155
BSTAR          = .25528E-2
MEAN_MOTION_DOT = .7086E-4
MEAN_MOTION_DDOT = 0

CCSDS_OMM_VERS = 2.0
CREATION_DATE  = 
ORIGINATOR     = 

OBJECT_NAME    = UNKNOWN
OBJECT_ID      = 
CENTER_NAME    = EARTH
REF_FRAME      = TEME
TIME_SYSTEM    = UTC
MEAN_ELEMENT_THEORY = SGP/SGP4

EPOCH          = 2025-12-02T22:23:22.144416
MEAN_MOTION    = 13.56515112
ECCENTRICITY   = .0045076
INCLINATION    = 100.0020
RA_OF_ASC_NODE = 209.4453
ARG_OF_PERICENTER = 24.4851
MEAN_ANOMALY   = 352.6675

EPHEMERIS_TYPE = 0
CLASSIFICATION_TYPE = U
NORAD_CAT_ID   = 81488
ELEMENT_SET_NO = 999
REV_AT_EPOCH   = 59530
BSTAR          = .41298E-3
MEAN_MOTION_DOT = .247E-5
MEAN_MOTION_DDOT = 0

CCSDS_OMM_VERS = 2.0
CREATION_DATE  = 
ORIGINATOR     = 

OBJECT_NAME    = UNKNOWN
OBJECT_ID      = 
CENTER_NAME    = EARTH
REF_FRAME      = TEME
TIME_SYSTEM    = UTC
MEAN_ELEMENT_THEORY = SGP/SGP4

EPOCH          = 2025-12-01T22:22:55.179840
MEAN_MOTION    = 13.84030990
ECCENTRICITY   = .0029522
INCLINATION    = 100.3015
RA_OF_ASC_NODE = 229.5626
ARG_OF_PERICENTER = 40.7664
MEAN_ANOMALY   = 20.3982

EPHEMERIS_TYPE = 0
CLASSIFICATION_TYPE = U
NORAD_CAT_ID   = 81497
ELEMENT_SET_NO = 999
REV_AT_EPOCH   = 21480
BSTAR          = .4261E-2
MEAN_MOTION_DOT = .4706E-4
MEAN_MOTION_DDOT = 0

CCSDS_OMM_VERS = 2.0
CREATION_DATE  = 
ORIGINATOR     = 

OBJECT_NAME    = UNKNOWN
OBJECT_ID      = 
CENTER_NAME    = EARTH
REF_FRAME      = TEME
TIME_SYSTEM    = UTC
MEAN_ELEMENT_THEORY = SGP/SGP4

EPOCH          = 2025-12-02T11:21:20.980800
MEAN_MOTION    = 14.47032962
ECCENTRICITY   = .0002021
INCLINATION    = 74.0499
RA_OF_ASC_NODE = 240.2383
ARG_OF_PERICENTER = 289.4859
MEAN_ANOMALY   = 70.6082

EPHEMERIS_TYPE = 0
CLASSIFICATION_TYPE = U
NORAD_CAT_ID   = 81499
ELEMENT_SET_NO = 999
REV_AT_EPOCH   = 48093
BSTAR          = .10072E-2
MEAN_MOTION_DOT = .3641E-4
MEAN_MOTION_DDOT = 0

CCSDS_OMM_VERS = 2.0
CREATION_DATE  = 
ORIGINATOR     = 

OBJECT_NAME    = UNKNOWN
OBJECT_ID      = 
CENTER_NAME    = EARTH
REF_FRAME      = TEME
TIME_SYSTEM    = UTC
MEAN_ELEMENT_THEORY = SGP/SGP4

EPOCH          = 2025-11-30T16:25:14.659680
MEAN_MOTION    = 14.13367578
ECCENTRICITY   = .0235838
INCLINATION    = 98.2033
RA_OF_ASC_NODE = 57.8910
ARG_OF_PERICENTER = 183.3861
MEAN_ANOMALY   = 176.5728

EPHEMERIS_TYPE = 0
CLASSIFICATION_TYPE = U
NORAD_CAT_ID   = 81535
ELEMENT_SET_NO = 999
REV_AT_EPOCH   = 38569
BSTAR          = .74671E-3
MEAN_MOTION_DOT = .1788E-4
MEAN_MOTION_DDOT = 0

CCSDS_OMM_VERS = 2.0
CREATION_DATE  = 
ORIGINATOR     = 

OBJECT_NAME    = UNKNOWN
OBJECT_ID      = 
CENTER_NAME    = EARTH
REF_FRAME      = TEME
TIME_SYSTEM    = UTC
MEAN_ELEMENT_THEORY = SGP/SGP4

EPOCH          = 2025-12-01T21:32:06.550656
MEAN_MOTION    = 12.55848085
ECCENTRICITY   = .0036022
INCLINATION    = 101.9571
RA_OF_ASC_NODE = 196.8368
ARG_OF_PERICENTER = 307.5169
MEAN_ANOMALY   = 68.5828

EPHEMERIS_TYPE = 0
CLASSIFICATION_TYPE = U
NORAD_CAT_ID   = 81536
ELEMENT_SET_NO = 999
REV_AT_EPOCH   = 55045
BSTAR          = .44708E-2
MEAN_MOTION_DOT = .69E-5
MEAN_MOTION_DDOT = 0

CCSDS_OMM_VERS = 2.0
CREATION_DATE  = 
ORIGINATOR     = 

OBJECT_NAME    = UNKNOWN
OBJECT_ID      = 
CENTER_NAME    = EARTH
REF_FRAME      = TEME
TIME_SYSTEM    = UTC
MEAN_ELEMENT_THEORY = SGP/SGP4

EPOCH          = 2025-12-03T03:41:44.267712
MEAN_MOTION    = 14.07077341
ECCENTRICITY   = .0076793
INCLINATION    = 71.0375
RA_OF_ASC_NODE = 129.0795
ARG_OF_PERICENTER = 168.5080
MEAN_ANOMALY   = 191.7815

EPHEMERIS_TYPE = 0
CLASSIFICATION_TYPE = U
NORAD_CAT_ID   = 81537
ELEMENT_SET_NO = 999
REV_AT_EPOCH   = 61911
BSTAR          = .28312E-3
MEAN_MOTION_DOT = .44E-5
MEAN_MOTION_DDOT = 0

CCSDS_OMM_VERS = 2.0
CREATION_DATE  = 
ORIGINATOR     = 

OBJECT_NAME    = UNKNOWN
OBJECT_ID      = 
CENTER_NAME    = EARTH
REF_FRAME      = TEME
TIME_SYSTEM    = UTC
MEAN_ELEMENT_THEORY = SGP/SGP4

EPOCH          = 2025-11-30T18:57:16.788960
MEAN_MOTION    = 13.18139573
ECCENTRICITY   = .0258917
INCLINATION    = 99.0689
RA_OF_ASC_NODE = 263.0944
ARG_OF_PERICENTER = 46.5201
MEAN_ANOMALY   = 315.7133

EPHEMERIS_TYPE = 0
CLASSIFICATION_TYPE = U
NORAD_CAT_ID   = 81552
ELEMENT_SET_NO = 999
REV_AT_EPOCH   = 57767
BSTAR          = .23273E-2
MEAN_MOTION_DOT = .1048E-4
MEAN_MOTION_DDOT = 0

